NORAD_CAT_ID,OBJECT_NAME,OBJECT_TYPE,EPOCH,MEAN_MOTION,ECCENTRICITY,INCLINATION,RA_OF_ASC_NODE,ARG_OF_PERICENTER,MEAN_ANOMALY,BSTAR,MEAN_MOTION_DOT,MEAN_MOTION_DDOT,TLE_LINE0,TLE_LINE1,TLE_LINE2,SEMIMAJOR_AXIS,PERIOD,APOGEE,PERIGEE,DECAYED
53894.0,STARLINK-5043,PAYLOAD,2022-10-08 20:00:01,15.73203249,9.08e-05,53.2188,184.3702,92.2377,203.9799,0.00055503,0.00078011,0.0,0 STARLINK-5043,1 53894U 22119J   22281.83334491  .00078011  00000-0  55503-3 0  9992,2 53894  53.2188 184.3702 0000908  92.2377 203.9799 15.73203249  2614,6727.886,91.533,350.362,349.14,0.0
53894.0,STARLINK-5043,PAYLOAD,2022-10-08 22:00:00,15.73231164,9.59e-05,53.2185,183.9584,85.8976,322.551,0.00028726,0.0003993999999999,0.0,0 STARLINK-5043,1 53894U 22119J   22281.91667824  .00039940  00000-0  28726-3 0  9995,2 53894  53.2185 183.9584 0000959  85.8976 322.5510 15.73231164  1304,6727.806,91.531,350.31699999999995,349.026,0.0
53894.0,STARLINK-5043,PAYLOAD,2022-10-09 12:00:00,15.73254214,0.0001102,53.2176,181.071,94.0747,20.1217,-0.00010798,-0.00015781,0.0,0 STARLINK-5043,1 53894U 22119J   22282.50001157 -.00015781  00000-0 -10798-3 0  9991,2 53894  53.2176 181.0710 0001102  94.0747  20.1217 15.73254214  2726,6727.741,91.53,350.347,348.86400000000015,0.0
53894.0,STARLINK-5043,PAYLOAD,2022-10-09 14:00:01,15.73226576,0.0001107999999999,53.2175,180.6581,96.7562,129.6966,0.00027953,0.00038836,0.0,0 STARLINK-5043,1 53894U 22119J   22282.58334491  .00038836  00000-0  27953-3 0  9994,2 53894  53.2175 180.6581 0001108  96.7562 129.6966 15.73226576  1305,6727.819,91.532,350.43,348.939,0.0
53894.0,STARLINK-5043,PAYLOAD,2022-10-09 22:00:00,15.73288114,0.000101,53.2176,179.0099,92.8296,222.5923,-0.00045494,-0.0006422,0.0,0 STARLINK-5043,1 53894U 22119J   22282.91667824 -.00064220  00000-0 -45494-3 0  9998,2 53894  53.2176 179.0099 0001010  92.8296 222.5923 15.73288114  1307,6727.644,91.528,350.18800000000016,348.829,0.0
53894.0,STARLINK-5043,PAYLOAD,2022-10-10 14:00:01,15.73143629,8.420000000000001e-05,53.2172,175.7073,102.8238,30.4487,0.00020094,0.00027605,0.0,0 STARLINK-5043,1 53894U 22119J   22283.58334491  .00027605  00000-0  20094-3 0  9996,2 53894  53.2172 175.7073 0000842 102.8238  30.4487 15.73143629  2895,6728.056,91.536,350.487,349.35400000000016,0.0
53894.0,STARLINK-5043,PAYLOAD,2022-10-10 22:00:01,15.73228432,0.0001004999999999,53.2174,174.0534,94.2361,127.9661,-0.0010704,-0.00148397,0.0,0 STARLINK-5043,1 53894U 22119J   22283.91668981 -.00148397  00000-0 -10704-2 0  9997,2 53894  53.2174 174.0534 0001005  94.2361 127.9661 15.73228432  1301,6727.814,91.532,350.355,349.00300000000016,0.0
53894.0,STARLINK-5043,PAYLOAD,2022-10-11 14:00:01,15.73123944,9.64e-05,53.2172,170.7477,93.1968,306.7765,0.00090421,0.00127809,0.0,0 STARLINK-5043,1 53894U 22119J   22284.58334491  .00127809  00000-0  90421-3 0  9995,2 53894  53.2172 170.7477 0000964  93.1968 306.7765 15.73123944  1306,6728.111999999999,91.538,350.626,349.32800000000015,0.0
53894.0,STARLINK-5043,PAYLOAD,2022-10-11 20:00:01,15.731772,0.0001235,53.2166,169.5261,96.0731,280.5243,0.00032254,0.00044844,0.0,0 STARLINK-5043,1 53894U 22119J   22284.83335648  .00044844  00000-0  32254-3 0  9995,2 53894  53.2166 169.5261 0001235  96.0731 280.5243 15.73177200  3089,6727.96,91.535,350.656,348.994,0.0
53894.0,STARLINK-5043,PAYLOAD,2022-10-11 22:00:00,15.73181857,0.0001225,53.2164,169.1143,92.0156,36.7427,0.0003888999999999,0.0005427,0.0,0 STARLINK-5043,1 53894U 22119J   22284.91667824  .00054270  00000-0  38890-3 0  9994,2 53894  53.2164 169.1143 0001225  92.0156  36.7427 15.73181857  1309,6727.946999999999,91.534,350.636,348.98800000000006,0.0
53894.0,STARLINK-5043,PAYLOAD,2022-10-12 14:00:01,15.73180407,0.0001097999999999,53.2168,165.8038,93.7968,212.882,0.00092624,0.00131311,0.0,0 STARLINK-5043,1 53894U 22119J   22285.58334491  .00131311  00000-0  92624-3 0  9996,2 53894  53.2168 165.8038 0001098  93.7968 212.8820 15.73180407  1300,6727.951,91.534,350.555,349.077,0.0
53894.0,STARLINK-5043,PAYLOAD,2022-10-12 20:00:01,15.7330388,0.0001032999999999,53.2174,164.5636,86.0383,197.3447,-0.0010741,-0.00149373,0.0,0 STARLINK-5043,1 53894U 22119J   22285.83334491 -.00149373  00000-0 -10741-2 0  9992,2 53894  53.2174 164.5636 0001033  86.0383 197.3447 15.73303880  3241,6727.599,91.527,350.159,348.769,0.0
53894.0,STARLINK-5043,PAYLOAD,2022-10-12 22:00:00,15.73230633,0.000103,53.2174,164.1503,80.7547,314.9035,-0.00031133,-0.0004414,0.0,0 STARLINK-5043,1 53894U 22119J   22285.91667824 -.00044140  00000-0 -31133-3 0  9995,2 53894  53.2174 164.1503 0001030  80.7547 314.9035 15.73230633  1300,6727.808000000001,91.531,350.366,348.98,0.0
53894.0,STARLINK-5043,PAYLOAD,2022-10-13 04:00:00,15.73204015,9.91e-05,53.2171,162.9119,72.0364,300.335,1.2908e-05,1.193e-05,0.0,0 STARLINK-5043,1 53894U 22119J   22286.16667824  .00001193  00000-0  12908-4 0  9992,2 53894  53.2171 162.9119 0000991  72.0364 300.3350 15.73204015  3296,6727.884,91.533,350.415,349.082,0.0
53894.0,STARLINK-5043,PAYLOAD,2022-10-13 14:00:01,15.73316364,0.0001192,53.2164,160.8524,96.0769,117.3876,-0.0010479,-0.00145886,0.0,0 STARLINK-5043,1 53894U 22119J   22286.58334491 -.00145886  00000-0 -10479-2 0  9998,2 53894  53.2164 160.8524 0001192  96.0769 117.3876 15.73316364  1304,6727.563,91.526,350.23,348.62699999999984,0.0
53894.0,STARLINK-5043,PAYLOAD,2022-10-13 22:00:00,15.73203692,0.0001398,53.2173,159.2,89.6283,212.8459,6.5351e-06,2.97e-06,0.0,0 STARLINK-5043,1 53894U 22119J   22286.91667824  .00000297  00000-0  65351-5 0  9990,2 53894  53.2173 159.2000 0001398  89.6283 212.8459 15.73203692  1309,6727.885,91.533,350.69,348.809,0.0
53894.0,STARLINK-5043,PAYLOAD,2022-10-14 06:00:00,15.7332487,0.0001133,53.2162,157.5591,92.8036,298.6693,-0.0024947,-0.00338804,0.0,0 STARLINK-5043,1 53894U 22119J   22287.25001157 -.00338804  00000-0 -24947-2 0  9992,2 53894  53.2162 157.5591 0001133  92.8036 298.6693 15.73324870  3476,6727.5390000000025,91.526,350.166,348.642,0.0
53894.0,STARLINK-5043,PAYLOAD,2022-10-14 14:00:01,15.7309102,0.0001331999999999,53.2172,155.9018,100.4634,19.9347,0.0012778,0.00181793,0.0,0 STARLINK-5043,1 53894U 22119J   22287.58334491  .00181793  00000-0  12778-2 0  9998,2 53894  53.2172 155.9018 0001332 100.4634  19.9347 15.73091020  3528,6728.206,91.54,350.967,349.175,0.0
53894.0,STARLINK-5043,PAYLOAD,2022-10-14 20:00:01,15.73203859,0.0001305,53.2175,154.6633,95.6392,1.4044,6.4573e-06,2.86e-06,0.0,0 STARLINK-5043,1 53894U 22119J   22287.83334491  .00000286  00000-0  64573-5 0  9996,2 53894  53.2175 154.6633 0001305  95.6392   1.4044 15.73203859  3565,6727.884,91.533,350.62699999999984,348.871,0.0
53894.0,STARLINK-5043,PAYLOAD,2022-10-15 14:00:01,15.73159618,0.0001102,53.2151,150.9682,110.215,276.9446,0.00045373,0.00063429,0.0,0 STARLINK-5043,1 53894U 22119J   22288.58334491  .00063429  00000-0  45373-3 0  9992,2 53894  53.2151 150.9682 0001102 110.2150 276.9446 15.73159618  1301,6728.01,91.536,350.617,349.134,0.0
53894.0,STARLINK-5043,PAYLOAD,2022-10-15 20:00:01,15.73197391,9.8e-05,53.2152,149.7326,101.2912,262.6065,0.00036109,0.00050355,0.0,0 STARLINK-5043,1 53894U 22119J   22288.83335648  .00050355  00000-0  36109-3 0  9996,2 53894  53.2152 149.7326 0000980 101.2912 262.6065 15.73197391  3718,6727.903,91.533,350.427,349.108,0.0
53894.0,STARLINK-5043,PAYLOAD,2022-10-15 22:00:01,15.73199381,9.7e-05,53.2152,149.3208,96.4328,19.6981,0.00050559,0.00070935,0.0,0 STARLINK-5043,1 53894U 22119J   22288.91668981  .00070935  00000-0  50559-3 0  9995,2 53894  53.2152 149.3208 0000970  96.4328  19.6981 15.73199381  1309,6727.897,91.533,350.415,349.1090000000001,0.0
53894.0,STARLINK-5043,PAYLOAD,2022-10-16 04:00:00,15.73262736,9.43e-05,53.2152,148.0836,90.9109,1.8389,-0.00039418,-0.00055721,0.0,0 STARLINK-5043,1 53894U 22119J   22289.16667824 -.00055721  00000-0 -39418-3 0  9997,2 53894  53.2152 148.0836 0000943  90.9109   1.8389 15.73262736  3771,6727.715999999999,91.53,350.216,348.94699999999995,0.0
53894.0,STARLINK-5043,PAYLOAD,2022-10-16 14:00:01,15.73171029,0.0001001,53.2154,146.0198,106.8477,187.1223,0.00047098,0.00065916,0.0,0 STARLINK-5043,1 53894U 22119J   22289.58334491  .00065916  00000-0  47098-3 0  9992,2 53894  53.2154 146.0198 0001001 106.8477 187.1223 15.73171029  1309,6727.978,91.535,350.516,349.1690000000001,0.0
53894.0,STARLINK-5043,PAYLOAD,2022-10-16 22:00:00,15.73196035,0.0001036,53.2157,144.3695,92.7943,290.1040000000001,-7.4643e-05,-0.00011079,0.0,0 STARLINK-5043,1 53894U 22119J   22289.91667824 -.00011079  00000-0 -74643-4 0  9998,2 53894  53.2157 144.3695 0001036  92.7943 290.1040 15.73196035  1300,6727.906,91.533,350.468,349.074,0.0
53894.0,STARLINK-5043,PAYLOAD,2022-10-17 04:00:00,15.73175789,0.000106,53.2148,143.1345,89.825,269.7288,0.00038539,0.00053757,0.0,0 STARLINK-5043,1 53894U 22119J   22290.16667824  .00053757  00000-0  38539-3 0  9997,2 53894  53.2148 143.1345 0001060  89.8250 269.7288 15.73175789  3923,6727.964,91.535,350.542,349.116,0.0
53894.0,STARLINK-5043,PAYLOAD,2022-10-17 12:00:00,15.73227533,0.0001153,53.2148,141.4836,106.7414,341.7859,7.850600000000001e-05,0.00010424,0.0,0 STARLINK-5043,1 53894U 22119J   22290.50001157  .00010424  00000-0  78506-4 0  9999,2 53894  53.2148 141.4836 0001153 106.7414 341.7859 15.73227533  3989,6727.816999999999,91.532,350.457,348.906,0.0
53894.0,STARLINK-5043,PAYLOAD,2022-10-17 14:00:01,15.73217689,0.0001193999999999,53.215,141.0686,106.2697,94.5022,0.00031377,0.00043678,0.0,0 STARLINK-5043,1 53894U 22119J   22290.58334491  .00043678  00000-0  31377-3 0  9998,2 53894  53.2150 141.0686 0001194 106.2697  94.5022 15.73217689  1304,6727.845,91.532,350.51300000000015,348.906,0.0
53894.0,STARLINK-5043,PAYLOAD,2022-10-17 20:00:01,15.73239356,0.0001165,53.2151,139.8362,96.0131,81.4341,-0.00050416,-0.00070899,0.0,0 STARLINK-5043,1 53894U 22119J   22290.83334491 -.00070899  00000-0 -50416-3 0  9998,2 53894  53.2151 139.8362 0001165  96.0131  81.4341 15.73239356  4035,6727.783,91.531,350.432,348.86400000000015,0.0
